start=new Date('2021-11-18T00:00:00.000Z').valueOf();
sats=[{"MEAN_ANOMALY":"284.1854","CENTER_NAME":"EARTH","EPOCH":"2021-11-17T22:14:58.959456","REV_AT_EPOCH":"2957","MEAN_MOTION_DOT":"-0.00000995","MEAN_ELEMENT_THEORY":"SGP4","TLE_LINE1":"1 48448U 21040W   21321.92707129 -.00000995  00000-0 -47953-4 0  9998","ELEMENT_SET_NO":"999","ECCENTRICITY":"0.00011370","MEAN_MOTION":"15.06390219","ARG_OF_PERICENTER":"75.9261","REF_FRAME":"TEME","OBJECT_ID":"2021-040W","PERIAPSIS":"546.456","MEAN_MOTION_DDOT":"0.0000000000000","EPHEMERIS_TYPE":"0","LAUNCH_DATE":"2021-05-09","SEMIMAJOR_AXIS":"6925.379","PERIOD":"95.593","COUNTRY_CODE":"US","SITE":"AFETR","BSTAR":"-0.00004795300000","APOAPSIS":"548.031","INCLINATION":"53.0579","GP_ID":"189978680","CLASSIFICATION_TYPE":"U","OBJECT_TYPE":"PAYLOAD","NORAD_CAT_ID":"48448","TIME_SYSTEM":"UTC","DECAY_DATE":null,"FILE":"3217982","TLE_LINE2":"2 48448  53.0579  42.0115 0001137  75.9261 284.1854 15.06390219 29575","RCS_SIZE":"LARGE","OBJECT_NAME":"STARLINK-2632","RA_OF_ASC_NODE":"42.0115"},{"BSTAR":"0.00035484000000","APOAPSIS":"548.026","CLASSIFICATION_TYPE":"U","GP_ID":"189978153","INCLINATION":"53.0569","OBJECT_TYPE":"PAYLOAD","NORAD_CAT_ID":"48449","TIME_SYSTEM":"UTC","DECAY_DATE":null,"FILE":"3217982","RA_OF_ASC_NODE":"43.6304","OBJECT_NAME":"STARLINK-2655","TLE_LINE2":"2 48449  53.0569  43.6304 0001234  81.7529 278.3600 15.06413830 29526","RCS_SIZE":"LARGE","MEAN_ANOMALY":"278.3600","CENTER_NAME":"EARTH","MEAN_MOTION_DOT":"0.00005010","REV_AT_EPOCH":"2952","EPOCH":"2021-11-17T13:36:10.150560","TLE_LINE1":"1 48449U 21040X   21321.56678415  .00005010  00000-0  35484-3 0  9990","ELEMENT_SET_NO":"999","ECCENTRICITY":"0.00012340","MEAN_ELEMENT_THEORY":"SGP4","ARG_OF_PERICENTER":"81.7529","MEAN_MOTION":"15.06413830","OBJECT_ID":"2021-040X","REF_FRAME":"TEME","EPHEMERIS_TYPE":"0","PERIAPSIS":"546.317","MEAN_MOTION_DDOT":"0.0000000000000","LAUNCH_DATE":"2021-05-09","SEMIMAJOR_AXIS":"6925.306","PERIOD":"95.591","COUNTRY_CODE":"US","SITE":"AFETR"},{"EPOCH":"2021-11-17T16:41:56.619744","MEAN_MOTION_DOT":"0.00001630","REV_AT_EPOCH":"2954","CENTER_NAME":"EARTH","MEAN_ANOMALY":"284.0409","MEAN_MOTION":"15.06404491","ARG_OF_PERICENTER":"76.0734","MEAN_ELEMENT_THEORY":"SGP4","ECCENTRICITY":"0.00013840","TLE_LINE1":"1 48450U 21040Y   21321.69579421  .00001630  00000-0  12830-3 0  9997","ELEMENT_SET_NO":"999","MEAN_MOTION_DDOT":"0.0000000000000","PERIAPSIS":"546.241","EPHEMERIS_TYPE":"0","REF_FRAME":"TEME","OBJECT_ID":"2021-040Y","COUNTRY_CODE":"US","SITE":"AFETR","SEMIMAJOR_AXIS":"6925.335","LAUNCH_DATE":"2021-05-09","PERIOD":"95.592","INCLINATION":"53.0563","GP_ID":"189978058","CLASSIFICATION_TYPE":"U","APOAPSIS":"548.158","BSTAR":"0.00012830000000","OBJECT_TYPE":"PAYLOAD","DECAY_DATE":null,"TIME_SYSTEM":"UTC","NORAD_CAT_ID":"48450","RCS_SIZE":"LARGE","TLE_LINE2":"2 48450  53.0563  43.0482 0001384  76.0734 284.0409 15.06404491 29540","RA_OF_ASC_NODE":"43.0482","OBJECT_NAME":"STARLINK-2660","FILE":"3217982"},{"RA_OF_ASC_NODE":"43.3663","OBJECT_NAME":"STARLINK-2652","RCS_SIZE":"LARGE","TLE_LINE2":"2 48451  53.0579  43.3663 0001245  63.6376 296.4741 15.06395365 29536","FILE":"3217982","DECAY_DATE":null,"TIME_SYSTEM":"UTC","NORAD_CAT_ID":"48451","OBJECT_TYPE":"PAYLOAD","CLASSIFICATION_TYPE":"U","INCLINATION":"53.0579","GP_ID":"189977934","APOAPSIS":"548.090","BSTAR":"-0.00001031800000","SITE":"AFETR","COUNTRY_CODE":"US","SEMIMAJOR_AXIS":"6925.363","LAUNCH_DATE":"2021-05-09","PERIOD":"95.592","EPHEMERIS_TYPE":"0","MEAN_MOTION_DDOT":"0.0000000000000","PERIAPSIS":"546.366","OBJECT_ID":"2021-040Z","REF_FRAME":"TEME","ARG_OF_PERICENTER":"63.6376","MEAN_MOTION":"15.06395365","ECCENTRICITY":"0.00012450","TLE_LINE1":"1 48451U 21040Z   21321.62576309 -.00000435  00000-0 -10318-4 0  9997","ELEMENT_SET_NO":"999","MEAN_ELEMENT_THEORY":"SGP4","REV_AT_EPOCH":"2953","MEAN_MOTION_DOT":"-0.00000435","EPOCH":"2021-11-17T15:01:05.930976","CENTER_NAME":"EARTH","MEAN_ANOMALY":"296.4741"},{"EPHEMERIS_TYPE":"0","PERIAPSIS":"546.332","MEAN_MOTION_DDOT":"0.0000000000000","OBJECT_ID":"2021-040AA","REF_FRAME":"TEME","LAUNCH_DATE":"2021-05-09","SEMIMAJOR_AXIS":"6925.329","PERIOD":"95.592","COUNTRY_CODE":"US","SITE":"AFETR","MEAN_MOTION_DOT":"0.00004498","REV_AT_EPOCH":"2951","EPOCH":"2021-11-17T11:53:58.029792","MEAN_ANOMALY":"282.5770","CENTER_NAME":"EARTH","ARG_OF_PERICENTER":"77.5358","MEAN_MOTION":"15.06406421","ELEMENT_SET_NO":"999","TLE_LINE1":"1 48452U 21040AA  21321.49581053  .00004498  00000-0  32059-3 0  9991","ECCENTRICITY":"0.00012440","MEAN_ELEMENT_THEORY":"SGP4","DECAY_DATE":null,"NORAD_CAT_ID":"48452","TIME_SYSTEM":"UTC","OBJECT_NAME":"STARLINK-2703","RA_OF_ASC_NODE":"43.9472","TLE_LINE2":"2 48452  53.0566  43.9472 0001244  77.5358 282.5770 15.06406421 29512","RCS_SIZE":"LARGE","FILE":"3217982","CLASSIFICATION_TYPE":"U","GP_ID":"189978524","INCLINATION":"53.0566","BSTAR":"0.00032059000000","APOAPSIS":"548.055","OBJECT_TYPE":"PAYLOAD"},{"TLE_LINE2":"2 48453  53.0563  43.0816 0001266  72.1395 287.9732 15.06398232 29549","RCS_SIZE":"LARGE","RA_OF_ASC_NODE":"43.0816","OBJECT_NAME":"STARLINK-2620","FILE":"3217982","DECAY_DATE":null,"NORAD_CAT_ID":"48453","TIME_SYSTEM":"UTC","OBJECT_TYPE":"PAYLOAD","INCLINATION":"53.0563","GP_ID":"189977812","CLASSIFICATION_TYPE":"U","BSTAR":"0.00010220000000","APOAPSIS":"548.096","PERIOD":"95.592","LAUNCH_DATE":"2021-05-09","SEMIMAJOR_AXIS":"6925.354","SITE":"AFETR","COUNTRY_CODE":"US","PERIAPSIS":"546.342","MEAN_MOTION_DDOT":"0.0000000000000","EPHEMERIS_TYPE":"0","REF_FRAME":"TEME","OBJECT_ID":"2021-040AB","MEAN_MOTION":"15.06398232","ARG_OF_PERICENTER":"72.1395","MEAN_ELEMENT_THEORY":"SGP4","TLE_LINE1":"1 48453U 21040AB  21321.68842179  .00001241  00000-0  10220-3 0  9991","ELEMENT_SET_NO":"999","ECCENTRICITY":"0.00012660","EPOCH":"2021-11-17T16:31:19.642656","MEAN_MOTION_DOT":"0.00001241","REV_AT_EPOCH":"2954","MEAN_ANOMALY":"287.9732","CENTER_NAME":"EARTH"},{"COUNTRY_CODE":"US","SITE":"AFETR","LAUNCH_DATE":"2021-05-09","SEMIMAJOR_AXIS":"6925.369","PERIOD":"95.593","OBJECT_ID":"2021-040AC","REF_FRAME":"TEME","EPHEMERIS_TYPE":"0","MEAN_MOTION_DDOT":"0.0000000000000","PERIAPSIS":"546.280","ECCENTRICITY":"0.00013780","ELEMENT_SET_NO":"999","TLE_LINE1":"1 48454U 21040AC  21321.68474070 -.00000191  00000-0  60657-5 0  9998","MEAN_ELEMENT_THEORY":"SGP4","ARG_OF_PERICENTER":"57.4312","MEAN_MOTION":"15.06393284","CENTER_NAME":"EARTH","MEAN_ANOMALY":"302.6810","MEAN_MOTION_DOT":"-0.00000191","REV_AT_EPOCH":"2954","EPOCH":"2021-11-17T16:26:01.596480","FILE":"3217982","OBJECT_NAME":"STARLINK-2654","RA_OF_ASC_NODE":"43.0997","RCS_SIZE":"LARGE","TLE_LINE2":"2 48454  53.0575  43.0997 0001378  57.4312 302.6810 15.06393284 29546","TIME_SYSTEM":"UTC","NORAD_CAT_ID":"48454","DECAY_DATE":null,"OBJECT_TYPE":"PAYLOAD","APOAPSIS":"548.188","BSTAR":"0.00000606570000","CLASSIFICATION_TYPE":"U","GP_ID":"189978400","INCLINATION":"53.0575"},{"OBJECT_TYPE":"PAYLOAD","GP_ID":"189978275","INCLINATION":"53.0557","CLASSIFICATION_TYPE":"U","APOAPSIS":"548.132","BSTAR":"0.00001645900000","RCS_SIZE":"LARGE","TLE_LINE2":"2 48455  53.0557  42.8241 0001294  70.2487 289.8641 15.06392848 29542","RA_OF_ASC_NODE":"42.8241","OBJECT_NAME":"STARLINK-2497","FILE":"3217982","DECAY_DATE":null,"TIME_SYSTEM":"UTC","NORAD_CAT_ID":"48455","MEAN_MOTION":"15.06392848","ARG_OF_PERICENTER":"70.2487","MEAN_ELEMENT_THEORY":"SGP4","ECCENTRICITY":"0.00012940","TLE_LINE1":"1 48455U 21040AD  21321.74739968 -.00000036  00000-0  16459-4 0  9994","ELEMENT_SET_NO":"999","EPOCH":"2021-11-17T17:56:15.332352","MEAN_MOTION_DOT":"-0.00000036","REV_AT_EPOCH":"2954","CENTER_NAME":"EARTH","MEAN_ANOMALY":"289.8641","COUNTRY_CODE":"US","SITE":"AFETR","LAUNCH_DATE":"2021-05-09","SEMIMAJOR_AXIS":"6925.370","PERIOD":"95.593","MEAN_MOTION_DDOT":"0.0000000000000","PERIAPSIS":"546.339","EPHEMERIS_TYPE":"0","REF_FRAME":"TEME","OBJECT_ID":"2021-040AD"},{"OBJECT_NAME":"STARLINK-2508","RA_OF_ASC_NODE":"42.8449","RCS_SIZE":"LARGE","TLE_LINE2":"2 48456  53.0561  42.8449 0001188  80.6732 279.4391 15.06393178 29542","FILE":"3217982","DECAY_DATE":null,"TIME_SYSTEM":"UTC","NORAD_CAT_ID":"48456","OBJECT_TYPE":"PAYLOAD","CLASSIFICATION_TYPE":"U","GP_ID":"189978681","INCLINATION":"53.0561","APOAPSIS":"548.057","BSTAR":"0.00002137600000","SITE":"AFETR","COUNTRY_CODE":"US","LAUNCH_DATE":"2021-05-09","PERIOD":"95.593","SEMIMAJOR_AXIS":"6925.369","EPHEMERIS_TYPE":"0","MEAN_MOTION_DDOT":"0.0000000000000","PERIAPSIS":"546.412","OBJECT_ID":"2021-040AE","REF_FRAME":"TEME","ARG_OF_PERICENTER":"80.6732","MEAN_MOTION":"15.06393178","ECCENTRICITY":"0.00011880","TLE_LINE1":"1 48456U 21040AE  21321.74371268  .00000037  00000-0  21376-4 0  9994","ELEMENT_SET_NO":"999","MEAN_ELEMENT_THEORY":"SGP4","MEAN_MOTION_DOT":"0.00000037","REV_AT_EPOCH":"2954","EPOCH":"2021-11-17T17:50:56.775552","CENTER_NAME":"EARTH","MEAN_ANOMALY":"279.4391"},{"EPHEMERIS_TYPE":"0","MEAN_MOTION_DDOT":"0.0000000000000","PERIAPSIS":"546.292","OBJECT_ID":"2021-040AG","REF_FRAME":"TEME","SITE":"AFETR","COUNTRY_CODE":"US","SEMIMAJOR_AXIS":"6925.366","LAUNCH_DATE":"2021-05-09","PERIOD":"95.592","MEAN_MOTION_DOT":"-0.00000223","REV_AT_EPOCH":"3018","EPOCH":"2021-11-17T16:21:20.814624","CENTER_NAME":"EARTH","MEAN_ANOMALY":"292.8316","ARG_OF_PERICENTER":"67.2816","MEAN_MOTION":"15.06394372","ECCENTRICITY":"0.00013560","TLE_LINE1":"1 48458U 21040AG  21321.68149091 -.00000223  00000-0  38957-5 0  9998","ELEMENT_SET_NO":"999","MEAN_ELEMENT_THEORY":"SGP4","DECAY_DATE":null,"TIME_SYSTEM":"UTC","NORAD_CAT_ID":"48458","OBJECT_NAME":"STARLINK-2698","RA_OF_ASC_NODE":"48.1162","RCS_SIZE":"LARGE","TLE_LINE2":"2 48458  53.0574  48.1162 0001356  67.2816 292.8316 15.06394372 30185","FILE":"3217982","CLASSIFICATION_TYPE":"U","GP_ID":"189978154","INCLINATION":"53.0574","APOAPSIS":"548.170","BSTAR":"0.00000389570000","OBJECT_TYPE":"PAYLOAD"}];
